start=new Date('2022-11-11T00:00:00.000Z').valueOf();
sats=[{"FILE":"3650509","OBJECT_TYPE":"PAYLOAD","BSTAR":"-0.00033024000000","CLASSIFICATION_TYPE":"U","REV_AT_EPOCH":"16576","MEAN_MOTION_DDOT":"0.0000000000000","GP_ID":"217340312","OBJECT_ID":"2019-074L","MEAN_MOTION_DOT":"-0.00005193","OBJECT_NAME":"STARLINK-1017","LAUNCH_DATE":"2019-11-11","RCS_SIZE":"LARGE","SITE":"AFETR","MEAN_MOTION":"15.06371689","ARG_OF_PERICENTER":"49.3646","COUNTRY_CODE":"US","ECCENTRICITY":"0.00015900","APOAPSIS":"548.401","RA_OF_ASC_NODE":"241.7912","DECAY_DATE":null,"ELEMENT_SET_NO":"999","TIME_SYSTEM":"UTC","PERIAPSIS":"546.199","EPHEMERIS_TYPE":"0","NORAD_CAT_ID":"44723","TLE_LINE1":"1 44723U 19074L   22314.50605759 -.00005193  00000-0 -33024-3 0  9995","INCLINATION":"53.0538","SEMIMAJOR_AXIS":"6925.435","CENTER_NAME":"EARTH","TLE_LINE2":"2 44723  53.0538 241.7912 0001590  49.3646 310.7480 15.06371689165763","PERIOD":"95.594","MEAN_ELEMENT_THEORY":"SGP4","REF_FRAME":"TEME","EPOCH":"2022-11-10T12:08:43.375776","MEAN_ANOMALY":"310.7480"},{"RA_OF_ASC_NODE":"243.1559","ELEMENT_SET_NO":"999","TIME_SYSTEM":"UTC","PERIAPSIS":"546.181","DECAY_DATE":null,"TLE_LINE2":"2 44724  53.0528 243.1559 0001610  51.2662 308.8471 15.06373207165541","EPHEMERIS_TYPE":"0","NORAD_CAT_ID":"44724","TLE_LINE1":"1 44724U 19074M   22314.20380047 -.00009786  00000-0 -63940-3 0  9995","CENTER_NAME":"EARTH","SEMIMAJOR_AXIS":"6925.431","INCLINATION":"53.0528","MEAN_ANOMALY":"308.8471","PERIOD":"95.594","REF_FRAME":"TEME","EPOCH":"2022-11-10T04:53:28.360608","MEAN_ELEMENT_THEORY":"SGP4","CLASSIFICATION_TYPE":"U","REV_AT_EPOCH":"16554","FILE":"3650424","OBJECT_TYPE":"PAYLOAD","BSTAR":"-0.00063940000000","RCS_SIZE":"LARGE","SITE":"AFETR","MEAN_MOTION_DOT":"-0.00009786","GP_ID":"217306633","MEAN_MOTION_DDOT":"0.0000000000000","OBJECT_ID":"2019-074M","OBJECT_NAME":"STARLINK-1019","LAUNCH_DATE":"2019-11-11","MEAN_MOTION":"15.06373207","ECCENTRICITY":"0.00016100","APOAPSIS":"548.411","ARG_OF_PERICENTER":"51.2662","COUNTRY_CODE":"US"},{"MEAN_ANOMALY":"306.2250","REF_FRAME":"TEME","PERIOD":"95.592","MEAN_ELEMENT_THEORY":"SGP4","EPOCH":"2022-11-10T06:36:58.278528","TLE_LINE2":"2 44725  53.0564 262.8301 0001782  53.8903 306.2250 15.06400145165449","NORAD_CAT_ID":"44725","TLE_LINE1":"1 44725U 19074N   22314.27567452 -.00001747  00000-0 -98397-4 0  9994","SEMIMAJOR_AXIS":"6925.348","INCLINATION":"53.0564","CENTER_NAME":"EARTH","EPHEMERIS_TYPE":"0","PERIAPSIS":"545.979","ELEMENT_SET_NO":"999","TIME_SYSTEM":"UTC","DECAY_DATE":null,"RA_OF_ASC_NODE":"262.8301","ECCENTRICITY":"0.00017820","APOAPSIS":"548.447","ARG_OF_PERICENTER":"53.8903","COUNTRY_CODE":"US","MEAN_MOTION":"15.06400145","SITE":"AFETR","RCS_SIZE":"LARGE","OBJECT_NAME":"STARLINK-1020","LAUNCH_DATE":"2019-11-11","GP_ID":"217344693","MEAN_MOTION_DOT":"-0.00001747","MEAN_MOTION_DDOT":"0.0000000000000","OBJECT_ID":"2019-074N","CLASSIFICATION_TYPE":"U","REV_AT_EPOCH":"16544","OBJECT_TYPE":"PAYLOAD","BSTAR":"-0.00009839700000","FILE":"3650690"},{"COUNTRY_CODE":"US","ARG_OF_PERICENTER":"52.7618","APOAPSIS":"548.361","ECCENTRICITY":"0.00015530","MEAN_MOTION":"15.06376454","MEAN_MOTION_DDOT":"0.0000000000000","GP_ID":"217305633","MEAN_MOTION_DOT":"-0.00000730","OBJECT_ID":"2019-074P","LAUNCH_DATE":"2019-11-11","OBJECT_NAME":"STARLINK-1021","RCS_SIZE":"LARGE","SITE":"AFETR","FILE":"3650424","BSTAR":"-0.00003011000000","OBJECT_TYPE":"PAYLOAD","REV_AT_EPOCH":"16559","CLASSIFICATION_TYPE":"U","PERIOD":"95.594","EPOCH":"2022-11-10T12:45:51.935040","REF_FRAME":"TEME","MEAN_ELEMENT_THEORY":"SGP4","MEAN_ANOMALY":"307.3512","EPHEMERIS_TYPE":"0","SEMIMAJOR_AXIS":"6925.421","CENTER_NAME":"EARTH","INCLINATION":"53.0540","NORAD_CAT_ID":"44726","TLE_LINE1":"1 44726U 19074P   22314.53185110 -.00000730  00000-0 -30110-4 0  9991","TLE_LINE2":"2 44726  53.0540 241.6646 0001553  52.7618 307.3512 15.06376454165592","DECAY_DATE":null,"TIME_SYSTEM":"UTC","ELEMENT_SET_NO":"999","PERIAPSIS":"546.210","RA_OF_ASC_NODE":"241.6646"},{"ARG_OF_PERICENTER":"52.3462","COUNTRY_CODE":"US","ECCENTRICITY":"0.00019270","APOAPSIS":"548.569","MEAN_MOTION":"15.06393023","OBJECT_NAME":"STARLINK-1022","LAUNCH_DATE":"2019-11-11","MEAN_MOTION_DDOT":"0.0000000000000","GP_ID":"217367170","MEAN_MOTION_DOT":"-0.00001596","OBJECT_ID":"2019-074Q","SITE":"AFETR","RCS_SIZE":"LARGE","OBJECT_TYPE":"PAYLOAD","BSTAR":"-0.00008828000000","FILE":"3650843","CLASSIFICATION_TYPE":"U","REV_AT_EPOCH":"16506","REF_FRAME":"TEME","PERIOD":"95.593","MEAN_ELEMENT_THEORY":"SGP4","EPOCH":"2022-11-10T15:13:07.868640","MEAN_ANOMALY":"307.7702","TLE_LINE1":"1 44727U 19074Q   22314.63411885 -.00001596  00000-0 -88280-4 0  9996","NORAD_CAT_ID":"44727","INCLINATION":"53.0547","SEMIMAJOR_AXIS":"6925.370","CENTER_NAME":"EARTH","EPHEMERIS_TYPE":"0","TLE_LINE2":"2 44727  53.0547 281.2263 0001927  52.3462 307.7702 15.06393023165061","DECAY_DATE":null,"PERIAPSIS":"545.900","ELEMENT_SET_NO":"999","TIME_SYSTEM":"UTC","RA_OF_ASC_NODE":"281.2263"},{"PERIOD":"94.749","REF_FRAME":"TEME","EPOCH":"2022-11-10T04:08:37.879296","MEAN_ELEMENT_THEORY":"SGP4","MEAN_ANOMALY":"246.6777","SEMIMAJOR_AXIS":"6884.557","INCLINATION":"53.0056","CENTER_NAME":"EARTH","NORAD_CAT_ID":"44729","TLE_LINE1":"1 44729U 19074S   22314.17266064  .00031155  00000-0  14449-2 0  9990","EPHEMERIS_TYPE":"0","TLE_LINE2":"2 44729  53.0056 242.2099 0004239 113.4663 246.6777 15.19808244165684","DECAY_DATE":null,"PERIAPSIS":"503.503","TIME_SYSTEM":"UTC","ELEMENT_SET_NO":"999","RA_OF_ASC_NODE":"242.2099","COUNTRY_CODE":"US","ARG_OF_PERICENTER":"113.4663","APOAPSIS":"509.340","ECCENTRICITY":"0.00042390","MEAN_MOTION":"15.19808244","LAUNCH_DATE":"2019-11-11","OBJECT_NAME":"STARLINK-1024","MEAN_MOTION_DDOT":"0.0000000000000","GP_ID":"217341436","MEAN_MOTION_DOT":"0.00031155","OBJECT_ID":"2019-074S","SITE":"AFETR","RCS_SIZE":"LARGE","BSTAR":"0.00144490000000","OBJECT_TYPE":"PAYLOAD","FILE":"3650556","REV_AT_EPOCH":"16568","CLASSIFICATION_TYPE":"U"},{"DECAY_DATE":null,"TIME_SYSTEM":"UTC","ELEMENT_SET_NO":"999","PERIAPSIS":"546.186","RA_OF_ASC_NODE":"243.1233","MEAN_ELEMENT_THEORY":"SGP4","PERIOD":"95.594","EPOCH":"2022-11-10T05:04:05.323008","REF_FRAME":"TEME","MEAN_ANOMALY":"306.6855","EPHEMERIS_TYPE":"0","SEMIMAJOR_AXIS":"6925.452","INCLINATION":"53.0527","CENTER_NAME":"EARTH","TLE_LINE1":"1 44731U 19074U   22314.21117272 -.00006265  00000-0 -40239-3 0  9997","NORAD_CAT_ID":"44731","TLE_LINE2":"2 44731  53.0527 243.1233 0001633  53.4284 306.6855 15.06366385165547","MEAN_MOTION_DDOT":"0.0000000000000","GP_ID":"217306384","MEAN_MOTION_DOT":"-0.00006265","OBJECT_ID":"2019-074U","LAUNCH_DATE":"2019-11-11","OBJECT_NAME":"STARLINK-1026","RCS_SIZE":"LARGE","SITE":"AFETR","FILE":"3650424","BSTAR":"-0.00040239000000","OBJECT_TYPE":"PAYLOAD","REV_AT_EPOCH":"16554","CLASSIFICATION_TYPE":"U","COUNTRY_CODE":"US","ARG_OF_PERICENTER":"53.4284","APOAPSIS":"548.448","ECCENTRICITY":"0.00016330","MEAN_MOTION":"15.06366385"},{"RA_OF_ASC_NODE":"260.1963","DECAY_DATE":null,"PERIAPSIS":"545.901","TIME_SYSTEM":"UTC","ELEMENT_SET_NO":"999","SEMIMAJOR_AXIS":"6925.346","INCLINATION":"53.0555","CENTER_NAME":"EARTH","TLE_LINE1":"1 44732U 19074V   22314.86173561  .00000652  00000-0  62656-4 0  9992","NORAD_CAT_ID":"44732","EPHEMERIS_TYPE":"0","TLE_LINE2":"2 44732  53.0555 260.1963 0001892  44.5750 315.5391 15.06400770165365","MEAN_ELEMENT_THEORY":"SGP4","PERIOD":"95.592","REF_FRAME":"TEME","EPOCH":"2022-11-10T20:40:53.956704","MEAN_ANOMALY":"315.5391","BSTAR":"0.00006265600000","OBJECT_TYPE":"PAYLOAD","FILE":"3650843","REV_AT_EPOCH":"16536","CLASSIFICATION_TYPE":"U","LAUNCH_DATE":"2019-11-11","OBJECT_NAME":"STARLINK-1027","MEAN_MOTION_DDOT":"0.0000000000000","GP_ID":"217366421","OBJECT_ID":"2019-074V","MEAN_MOTION_DOT":"0.00000652","SITE":"AFETR","RCS_SIZE":"LARGE","MEAN_MOTION":"15.06400770","COUNTRY_CODE":"US","ARG_OF_PERICENTER":"44.5750","APOAPSIS":"548.521","ECCENTRICITY":"0.00018920"},{"SITE":"AFETR","RCS_SIZE":"LARGE","OBJECT_NAME":"STARLINK-1028","LAUNCH_DATE":"2019-11-11","GP_ID":"217366671","MEAN_MOTION_DDOT":"0.0000000000000","MEAN_MOTION_DOT":"0.00007115","OBJECT_ID":"2019-074W","CLASSIFICATION_TYPE":"U","REV_AT_EPOCH":"16563","OBJECT_TYPE":"PAYLOAD","BSTAR":"0.00049641000000","FILE":"3650843","ECCENTRICITY":"0.00018910","APOAPSIS":"548.595","ARG_OF_PERICENTER":"64.4694","COUNTRY_CODE":"US","MEAN_MOTION":"15.06376442","PERIAPSIS":"545.976","ELEMENT_SET_NO":"999","TIME_SYSTEM":"UTC","DECAY_DATE":null,"RA_OF_ASC_NODE":"240.4943","MEAN_ANOMALY":"295.6491","PERIOD":"95.594","EPOCH":"2022-11-10T19:02:43.514016","REF_FRAME":"TEME","MEAN_ELEMENT_THEORY":"SGP4","TLE_LINE2":"2 44733  53.0544 240.4943 0001891  64.4694 295.6491 15.06376442165637","NORAD_CAT_ID":"44733","TLE_LINE1":"1 44733U 19074W   22314.79355919  .00007115  00000-0  49641-3 0  9993","SEMIMAJOR_AXIS":"6925.421","INCLINATION":"53.0544","CENTER_NAME":"EARTH","EPHEMERIS_TYPE":"0"},{"DECAY_DATE":null,"PERIAPSIS":"547.032","ELEMENT_SET_NO":"999","TIME_SYSTEM":"UTC","RA_OF_ASC_NODE":"160.4372","PERIOD":"95.595","REF_FRAME":"TEME","MEAN_ELEMENT_THEORY":"SGP4","EPOCH":"2022-11-10T19:23:59.219520","MEAN_ANOMALY":"335.7822","TLE_LINE1":"1 44734U 19074X   22314.80832430  .00005041  00000-0  35751-3 0  9997","NORAD_CAT_ID":"44734","INCLINATION":"53.0537","SEMIMAJOR_AXIS":"6925.490","CENTER_NAME":"EARTH","EPHEMERIS_TYPE":"0","TLE_LINE2":"2 44734  53.0537 160.4372 0000466  24.3188 335.7822 15.06353899166734","OBJECT_NAME":"STARLINK-1029","LAUNCH_DATE":"2019-11-11","GP_ID":"217367418","OBJECT_ID":"2019-074X","MEAN_MOTION_DDOT":"0.0000000000000","MEAN_MOTION_DOT":"0.00005041","SITE":"AFETR","RCS_SIZE":"LARGE","OBJECT_TYPE":"PAYLOAD","BSTAR":"0.00035751000000","FILE":"3650843","CLASSIFICATION_TYPE":"U","REV_AT_EPOCH":"16673","ARG_OF_PERICENTER":"24.3188","COUNTRY_CODE":"US","ECCENTRICITY":"0.00004660","APOAPSIS":"547.678","MEAN_MOTION":"15.06353899"}];
